ONEWEB-0584             
1 54651U 22166K   23340.21152682 -.00000056  00000+0 -16774-3 0  9997
2 54651  87.9258  67.9109 0001847  90.9880 269.1465 13.21825371 49928
ONEWEB-0585             
1 54652U 22166L   23340.16103885 -.00010376  00000+0 -25165-1 0  9991
2 54652  87.9260  67.9250 0001723 110.1936 249.9384 13.21878394 49928
ONEWEB-0586             
1 54653U 22166M   23340.17367186 -.00005410  00000+0 -13133-1 0  9994
2 54653  87.9253  67.9559 0001967  88.0652 272.0707 13.21851836 49929
ONEWEB-0587             
1 54654U 22166N   23339.72898260  .00000024  00000+0  27128-4 0  9992
2 54654  87.9248  67.9958 0001801 114.4590 245.6731 13.21825364 49558
ONEWEB-0589             
1 54655U 22166P   23340.17051456 -.00000068  00000+0 -19634-3 0  9994
2 54655  87.9257  67.9295 0003285 105.4672 254.6825 13.21829121 49944
ONEWEB-0590             
1 54656U 22166Q   23340.19417385 -.00003410  00000+0 -82907-2 0  9990
2 54656  87.9248  67.9261 0001851 104.8221 255.3118 13.21839175 49929
ONEWEB-0591             
1 54657U 22166R   23339.29843649  .00000079  00000+0  15959-3 0  9996
2 54657  87.9263  68.1071 0001809  97.2691 262.8649 13.21825817 49377
ONEWEB-0592             
1 54658U 22166S   23339.30159639  .00000013  00000+0 -67892-6 0  9993
2 54658  87.9250  68.0824 0001887  95.0493 265.0857 13.21828006 49257
